SKYKRAFT-1A             
1 55054U 23001AX  26068.71064616  .00008177  00000+0  30069-3 0  9991
2 55054  97.3349 127.6290 0011277 121.5092 238.7251 15.28083228176529
STARLINK-31232          
1 58831U 24017F   26068.65104669  .00000276  00000+0  21441-4 0  9998
2 58831  53.1603 204.2623 0001181  50.6420 309.4685 15.30187107120058
